{"fetched_at":"2026-03-29T16:36:15Z","count":15609,"tles":[{"name":"STARLINK-32842","line1":"1 62822U 25018S   26087.85659148  .00030386  00000+0  10336-2 0  9999","line2":"2 62822  53.1581 220.5152 0001169  79.2107 280.9025 15.30208122 66119","category":"Starlink"}]}