{
  "norad_id": 62822,
  "name": "STARLINK-32842",
  "history": [
    {
      "epoch": "2026-03-28T20:33:29.503872Z",
      "apogee_km": 475.9919727205961,
      "perigee_km": 474.3896646765834,
      "latitude_deg": -2.00772912909567e-05,
      "longitude_deg": 85.87122124196411,
      "height_km": 475.9388899503117,
      "semi_major_axis_km": 6853.327818698589,
      "eccentricity": 0.0001169,
      "inclination_deg": 53.1581,
      "raan_deg": 220.5152,
      "arg_perigee_deg": 79.2107,
      "mean_anomaly_deg": 280.9025,
      "mean_motion_rev_day": 15.30208122
    }
  ]
}